ONEWEB-0564             
1 55801U 23029F   25100.79064764  .00000002  00000+0 -25989-4 0  9995
2 55801  87.9332   0.5561 0002124  88.5832 271.5545 13.20771407104784
ONEWEB-0638             
1 55802U 23029G   25100.73957906  .00000193  00000+0  48559-3 0  9996
2 55802  87.9094  15.7672 0002421  79.1735 280.9667 13.14505280103290
ONEWEB-0639             
1 55803U 23029H   25100.49710429  .00000120  00000+0  26815-3 0  9998
2 55803  87.9257  30.9833 0002033  44.6837 315.4459 13.19724958101830
ONEWEB-0640             
1 55804U 23029J   25100.29238145  .00000288  00000+0  74360-3 0  9990
2 55804  87.9093  15.8454 0002542  69.0029 291.1373 13.14506108102543
ONEWEB-0641             
1 55805U 23029K   25100.49236200  .00000064  00000+0  12828-3 0  9996
2 55805  87.9252  30.9581 0001840  72.0885 288.0448 13.19723989101847
ONEWEB-0642             
1 55806U 23029L   25100.79089239  .00000052  00000+0  97630-4 0  9990
2 55806  87.9257  30.9335 0001668  48.6785 311.4491 13.19724061102567
ONEWEB-0643             
1 55807U 23029M   25100.49060421 -.00000358  00000+0 -10002-2 0  9997
2 55807  87.9095  15.7871 0001263  58.8923 301.2331 13.14501932102545
ONEWEB-0644             
1 55808U 23029N   25100.33125736  .00000049  00000+0  89869-4 0  9996
2 55808  87.9259  31.0268 0001689  62.4498 297.6807 13.19724293101816
