<?xml version="1.0" encoding="UTF-8"?>
<ndm xmlns:xsi="http://www.w3.org/2001/XMLSchema-instance" xsi:noNamespaceSchemaLocation="https://sanaregistry.org/r/ndmxml_unqualified/ndmxml-2.0.0-master-2.0.xsd">
<omm id="CCSDS_OMM_VERS" version="2.0">
<header><CREATION_DATE/><ORIGINATOR/></header><body><segment><metadata><OBJECT_NAME>ONEWEB-0564</OBJECT_NAME><OBJECT_ID>2023-029F</OBJECT_ID><CENTER_NAME>EARTH</CENTER_NAME><REF_FRAME>TEME</REF_FRAME><TIME_SYSTEM>UTC</TIME_SYSTEM><MEAN_ELEMENT_THEORY>SGP4</MEAN_ELEMENT_THEORY></metadata><data><meanElements><EPOCH>2025-04-10T18:58:31.956096</EPOCH><MEAN_MOTION>13.20771407</MEAN_MOTION><ECCENTRICITY>.0002124</ECCENTRICITY><INCLINATION>87.9332</INCLINATION><RA_OF_ASC_NODE>0.5561</RA_OF_ASC_NODE><ARG_OF_PERICENTER>88.5832</ARG_OF_PERICENTER><MEAN_ANOMALY>271.5545</MEAN_ANOMALY></meanElements><tleParameters><EPHEMERIS_TYPE>0</EPHEMERIS_TYPE><CLASSIFICATION_TYPE>U</CLASSIFICATION_TYPE><NORAD_CAT_ID>55801</NORAD_CAT_ID><ELEMENT_SET_NO>999</ELEMENT_SET_NO><REV_AT_EPOCH>10478</REV_AT_EPOCH><BSTAR>-.25989E-4</BSTAR><MEAN_MOTION_DOT>.2E-7</MEAN_MOTION_DOT><MEAN_MOTION_DDOT>0</MEAN_MOTION_DDOT></tleParameters></data></segment></body></omm>
<omm id="CCSDS_OMM_VERS" version="2.0">
<header><CREATION_DATE/><ORIGINATOR/></header><body><segment><metadata><OBJECT_NAME>ONEWEB-0638</OBJECT_NAME><OBJECT_ID>2023-029G</OBJECT_ID><CENTER_NAME>EARTH</CENTER_NAME><REF_FRAME>TEME</REF_FRAME><TIME_SYSTEM>UTC</TIME_SYSTEM><MEAN_ELEMENT_THEORY>SGP4</MEAN_ELEMENT_THEORY></metadata><data><meanElements><EPOCH>2025-04-10T17:44:59.630784</EPOCH><MEAN_MOTION>13.14505280</MEAN_MOTION><ECCENTRICITY>.0002421</ECCENTRICITY><INCLINATION>87.9094</INCLINATION><RA_OF_ASC_NODE>15.7672</RA_OF_ASC_NODE><ARG_OF_PERICENTER>79.1735</ARG_OF_PERICENTER><MEAN_ANOMALY>280.9667</MEAN_ANOMALY></meanElements><tleParameters><EPHEMERIS_TYPE>0</EPHEMERIS_TYPE><CLASSIFICATION_TYPE>U</CLASSIFICATION_TYPE><NORAD_CAT_ID>55802</NORAD_CAT_ID><ELEMENT_SET_NO>999</ELEMENT_SET_NO><REV_AT_EPOCH>10329</REV_AT_EPOCH><BSTAR>.48559E-3</BSTAR><MEAN_MOTION_DOT>.193E-5</MEAN_MOTION_DOT><MEAN_MOTION_DDOT>0</MEAN_MOTION_DDOT></tleParameters></data></segment></body></omm>
<omm id="CCSDS_OMM_VERS" version="2.0">
<header><CREATION_DATE/><ORIGINATOR/></header><body><segment><metadata><OBJECT_NAME>ONEWEB-0639</OBJECT_NAME><OBJECT_ID>2023-029H</OBJECT_ID><CENTER_NAME>EARTH</CENTER_NAME><REF_FRAME>TEME</REF_FRAME><TIME_SYSTEM>UTC</TIME_SYSTEM><MEAN_ELEMENT_THEORY>SGP4</MEAN_ELEMENT_THEORY></metadata><data><meanElements><EPOCH>2025-04-10T11:55:49.810656</EPOCH><MEAN_MOTION>13.19724958</MEAN_MOTION><ECCENTRICITY>.0002033</ECCENTRICITY><INCLINATION>87.9257</INCLINATION><RA_OF_ASC_NODE>30.9833</RA_OF_ASC_NODE><ARG_OF_PERICENTER>44.6837</ARG_OF_PERICENTER><MEAN_ANOMALY>315.4459</MEAN_ANOMALY></meanElements><tleParameters><EPHEMERIS_TYPE>0</EPHEMERIS_TYPE><CLASSIFICATION_TYPE>U</CLASSIFICATION_TYPE><NORAD_CAT_ID>55803</NORAD_CAT_ID><ELEMENT_SET_NO>999</ELEMENT_SET_NO><REV_AT_EPOCH>10183</REV_AT_EPOCH><BSTAR>.26815E-3</BSTAR><MEAN_MOTION_DOT>.12E-5</MEAN_MOTION_DOT><MEAN_MOTION_DDOT>0</MEAN_MOTION_DDOT></tleParameters></data></segment></body></omm>
<omm id="CCSDS_OMM_VERS" version="2.0">
<header><CREATION_DATE/><ORIGINATOR/></header><body><segment><metadata><OBJECT_NAME>ONEWEB-0640</OBJECT_NAME><OBJECT_ID>2023-029J</OBJECT_ID><CENTER_NAME>EARTH</CENTER_NAME><REF_FRAME>TEME</REF_FRAME><TIME_SYSTEM>UTC</TIME_SYSTEM><MEAN_ELEMENT_THEORY>SGP4</MEAN_ELEMENT_THEORY></metadata><data><meanElements><EPOCH>2025-04-10T07:01:01.757280</EPOCH><MEAN_MOTION>13.14506108</MEAN_MOTION><ECCENTRICITY>.0002542</ECCENTRICITY><INCLINATION>87.9093</INCLINATION><RA_OF_ASC_NODE>15.8454</RA_OF_ASC_NODE><ARG_OF_PERICENTER>69.0029</ARG_OF_PERICENTER><MEAN_ANOMALY>291.1373</MEAN_ANOMALY></meanElements><tleParameters><EPHEMERIS_TYPE>0</EPHEMERIS_TYPE><CLASSIFICATION_TYPE>U</CLASSIFICATION_TYPE><NORAD_CAT_ID>55804</NORAD_CAT_ID><ELEMENT_SET_NO>999</ELEMENT_SET_NO><REV_AT_EPOCH>10254</REV_AT_EPOCH><BSTAR>.7436E-3</BSTAR><MEAN_MOTION_DOT>.288E-5</MEAN_MOTION_DOT><MEAN_MOTION_DDOT>0</MEAN_MOTION_DDOT></tleParameters></data></segment></body></omm>
<omm id="CCSDS_OMM_VERS" version="2.0">
<header><CREATION_DATE/><ORIGINATOR/></header><body><segment><metadata><OBJECT_NAME>ONEWEB-0641</OBJECT_NAME><OBJECT_ID>2023-029K</OBJECT_ID><CENTER_NAME>EARTH</CENTER_NAME><REF_FRAME>TEME</REF_FRAME><TIME_SYSTEM>UTC</TIME_SYSTEM><MEAN_ELEMENT_THEORY>SGP4</MEAN_ELEMENT_THEORY></metadata><data><meanElements><EPOCH>2025-04-10T11:49:00.076800</EPOCH><MEAN_MOTION>13.19723989</MEAN_MOTION><ECCENTRICITY>.000184</ECCENTRICITY><INCLINATION>87.9252</INCLINATION><RA_OF_ASC_NODE>30.9581</RA_OF_ASC_NODE><ARG_OF_PERICENTER>72.0885</ARG_OF_PERICENTER><MEAN_ANOMALY>288.0448</MEAN_ANOMALY></meanElements><tleParameters><EPHEMERIS_TYPE>0</EPHEMERIS_TYPE><CLASSIFICATION_TYPE>U</CLASSIFICATION_TYPE><NORAD_CAT_ID>55805</NORAD_CAT_ID><ELEMENT_SET_NO>999</ELEMENT_SET_NO><REV_AT_EPOCH>10184</REV_AT_EPOCH><BSTAR>.12828E-3</BSTAR><MEAN_MOTION_DOT>.64E-6</MEAN_MOTION_DOT><MEAN_MOTION_DDOT>0</MEAN_MOTION_DDOT></tleParameters></data></segment></body></omm>
<omm id="CCSDS_OMM_VERS" version="2.0">
<header><CREATION_DATE/><ORIGINATOR/></header><body><segment><metadata><OBJECT_NAME>ONEWEB-0642</OBJECT_NAME><OBJECT_ID>2023-029L</OBJECT_ID><CENTER_NAME>EARTH</CENTER_NAME><REF_FRAME>TEME</REF_FRAME><TIME_SYSTEM>UTC</TIME_SYSTEM><MEAN_ELEMENT_THEORY>SGP4</MEAN_ELEMENT_THEORY></metadata><data><meanElements><EPOCH>2025-04-10T18:58:53.102496</EPOCH><MEAN_MOTION>13.19724061</MEAN_MOTION><ECCENTRICITY>.0001668</ECCENTRICITY><INCLINATION>87.9257</INCLINATION><RA_OF_ASC_NODE>30.9335</RA_OF_ASC_NODE><ARG_OF_PERICENTER>48.6785</ARG_OF_PERICENTER><MEAN_ANOMALY>311.4491</MEAN_ANOMALY></meanElements><tleParameters><EPHEMERIS_TYPE>0</EPHEMERIS_TYPE><CLASSIFICATION_TYPE>U</CLASSIFICATION_TYPE><NORAD_CAT_ID>55806</NORAD_CAT_ID><ELEMENT_SET_NO>999</ELEMENT_SET_NO><REV_AT_EPOCH>10256</REV_AT_EPOCH><BSTAR>.9763E-4</BSTAR><MEAN_MOTION_DOT>.52E-6</MEAN_MOTION_DOT><MEAN_MOTION_DDOT>0</MEAN_MOTION_DDOT></tleParameters></data></segment></body></omm>
<omm id="CCSDS_OMM_VERS" version="2.0">
<header><CREATION_DATE/><ORIGINATOR/></header><body><segment><metadata><OBJECT_NAME>ONEWEB-0643</OBJECT_NAME><OBJECT_ID>2023-029M</OBJECT_ID><CENTER_NAME>EARTH</CENTER_NAME><REF_FRAME>TEME</REF_FRAME><TIME_SYSTEM>UTC</TIME_SYSTEM><MEAN_ELEMENT_THEORY>SGP4</MEAN_ELEMENT_THEORY></metadata><data><meanElements><EPOCH>2025-04-10T11:46:28.203744</EPOCH><MEAN_MOTION>13.14501932</MEAN_MOTION><ECCENTRICITY>.0001263</ECCENTRICITY><INCLINATION>87.9095</INCLINATION><RA_OF_ASC_NODE>15.7871</RA_OF_ASC_NODE><ARG_OF_PERICENTER>58.8923</ARG_OF_PERICENTER><MEAN_ANOMALY>301.2331</MEAN_ANOMALY></meanElements><tleParameters><EPHEMERIS_TYPE>0</EPHEMERIS_TYPE><CLASSIFICATION_TYPE>U</CLASSIFICATION_TYPE><NORAD_CAT_ID>55807</NORAD_CAT_ID><ELEMENT_SET_NO>999</ELEMENT_SET_NO><REV_AT_EPOCH>10254</REV_AT_EPOCH><BSTAR>-.10002E-2</BSTAR><MEAN_MOTION_DOT>-.358E-5</MEAN_MOTION_DOT><MEAN_MOTION_DDOT>0</MEAN_MOTION_DDOT></tleParameters></data></segment></body></omm>
<omm id="CCSDS_OMM_VERS" version="2.0">
<header><CREATION_DATE/><ORIGINATOR/></header><body><segment><metadata><OBJECT_NAME>ONEWEB-0644</OBJECT_NAME><OBJECT_ID>2023-029N</OBJECT_ID><CENTER_NAME>EARTH</CENTER_NAME><REF_FRAME>TEME</REF_FRAME><TIME_SYSTEM>UTC</TIME_SYSTEM><MEAN_ELEMENT_THEORY>SGP4</MEAN_ELEMENT_THEORY></metadata><data><meanElements><EPOCH>2025-04-10T07:57:00.635904</EPOCH><MEAN_MOTION>13.19724293</MEAN_MOTION><ECCENTRICITY>.0001689</ECCENTRICITY><INCLINATION>87.9259</INCLINATION><RA_OF_ASC_NODE>31.0268</RA_OF_ASC_NODE><ARG_OF_PERICENTER>62.4498</ARG_OF_PERICENTER><MEAN_ANOMALY>297.6807</MEAN_ANOMALY></meanElements><tleParameters><EPHEMERIS_TYPE>0</EPHEMERIS_TYPE><CLASSIFICATION_TYPE>U</CLASSIFICATION_TYPE><NORAD_CAT_ID>55808</NORAD_CAT_ID><ELEMENT_SET_NO>999</ELEMENT_SET_NO><REV_AT_EPOCH>10181</REV_AT_EPOCH><BSTAR>.89869E-4</BSTAR><MEAN_MOTION_DOT>.49E-6</MEAN_MOTION_DOT><MEAN_MOTION_DDOT>0</MEAN_MOTION_DDOT></tleParameters></data></segment></body></omm>

</ndm>
